{
  "links" : {
    "next" : "https://api.nasa.gov/neo/rest/v1/neo/browse?page=21&size=20&api_key=jqAGvNAwUIBu4fl9FSOjdm3V4F7hIglRzI6pdX9d",
    "prev" : "https://api.nasa.gov/neo/rest/v1/neo/browse?page=19&size=20&api_key=jqAGvNAwUIBu4fl9FSOjdm3V4F7hIglRzI6pdX9d",
    "self" : "https://api.nasa.gov/neo/rest/v1/neo/browse?page=20&size=20&api_key=jqAGvNAwUIBu4fl9FSOjdm3V4F7hIglRzI6pdX9d"
  },
  "page" : {
    "size" : 20,
    "total_elements" : 20750,
    "total_pages" : 1038,
    "number" : 20
  },
  "near_earth_objects" : [ {
    "links" : {
      "self" : "https://api.nasa.gov/neo/rest/v1/neo/3275976?api_key=jqAGvNAwUIBu4fl9FSOjdm3V4F7hIglRzI6pdX9d"
    },
    "neo_reference_id" : "3275976",
    "name" : "(2005 GP33)",
    "designation" : "2005 GP33",
    "nasa_jpl_url" : "http://ssd.jpl.nasa.gov/sbdb.cgi?sstr=3275976",
    "absolute_magnitude_h" : 24.3,
    "estimated_diameter" : {
      "kilometers" : {
        "estimated_diameter_min" : 0.0366906138,
        "estimated_diameter_max" : 0.0820427065
      },
      "meters" : {
        "estimated_diameter_min" : 36.6906137531,
        "estimated_diameter_max" : 82.0427064882
      },
      "miles" : {
        "estimated_diameter_min" : 0.0227984834,
        "estimated_diameter_max" : 0.0509789586
      },
      "feet" : {
        "estimated_diameter_min" : 120.3760332259,
        "estimated_diameter_max" : 269.1689931548
      }
    },
    "is_potentially_hazardous_asteroid" : false,
    "close_approach_data" : [ {
      "close_approach_date" : "2005-04-01",
      "epoch_date_close_approach" : 1112342400000,
      "relative_velocity" : {
        "kilometers_per_second" : "9.6261829259",
        "kilometers_per_hour" : "34654.258533323",
        "miles_per_hour" : "21532.8085869973"
      },
      "miss_distance" : {
        "astronomical" : "0.0582616938",
        "lunar" : "22.6637992859",
        "kilometers" : "8715825",
        "miles" : "5415762.5"
      },
      "orbiting_body" : "Earth"
    }, {
      "close_approach_date" : "2010-10-06",
      "epoch_date_close_approach" : 1286348400000,
      "relative_velocity" : {
        "kilometers_per_second" : "5.9626179586",
        "kilometers_per_hour" : "21465.4246509841",
        "miles_per_hour" : "13337.7801116073"
      },
      "miss_distance" : {
        "astronomical" : "1.7221545028",
        "lunar" : "669.9180908203",
        "kilometers" : "257630656",
        "miles" : "160084256"
      },
      "orbiting_body" : "Juptr"
    } ],
    "orbital_data" : {
      "orbit_id" : "10",
      "orbit_determination_date" : "2017-04-06 09:11:09",
      "first_observation_date" : "2005-04-06",
      "last_observation_date" : "2005-04-18",
      "data_arc_in_days" : 12,
      "observations_used" : 33,
      "orbit_uncertainty" : "8",
      "minimum_orbit_intersection" : ".050946",
      "jupiter_tisserand_invariant" : "3.246",
      "epoch_osculation" : "2453470.5",
      "eccentricity" : ".5840975487192155",
      "semi_major_axis" : "2.422753729851388",
      "inclination" : "7.383759043912515",
      "ascending_node_longitude" : "22.50445310049775",
      "orbital_period" : "1377.407150300613",
      "perihelion_distance" : "1.007629215094856",
      "perihelion_argument" : "142.5411626155934",
      "aphelion_distance" : "3.837878244607921",
      "perihelion_time" : "2453440.886449082244",
      "mean_anomaly" : "7.739816312167006",
      "mean_motion" : ".261360629586852",
      "equinox" : "J2000",
      "orbit_class" : {
        "orbit_class_type" : "APO",
        "orbit_class_range" : "a (semi-major axis) > 1.0 AU; q (perihelion) < 1.017 AU",
        "orbit_class_description" : "Near-Earth asteroid orbits which cross the Earth’s orbit similar to that of 1862 Apollo"
      }
    },
    "is_sentry_object" : false
  }, {
    "links" : {
      "self" : "https://api.nasa.gov/neo/rest/v1/neo/3275977?api_key=jqAGvNAwUIBu4fl9FSOjdm3V4F7hIglRzI6pdX9d"
    },
    "neo_reference_id" : "3275977",
    "name" : "(2005 GQ33)",
    "designation" : "2005 GQ33",
    "nasa_jpl_url" : "http://ssd.jpl.nasa.gov/sbdb.cgi?sstr=3275977",
    "absolute_magnitude_h" : 23.757,
    "estimated_diameter" : {
      "kilometers" : {
        "estimated_diameter_min" : 0.0471145423,
        "estimated_diameter_max" : 0.1053513193
      },
      "meters" : {
        "estimated_diameter_min" : 47.1145423151,
        "estimated_diameter_max" : 105.3513193453
      },
      "miles" : {
        "estimated_diameter_min" : 0.0292756103,
        "estimated_diameter_max" : 0.0654622547
      },
      "feet" : {
        "estimated_diameter_min" : 154.575275009,
        "estimated_diameter_max" : 345.6408225609
      }
    },
    "is_potentially_hazardous_asteroid" : false,
    "close_approach_data" : [ {
      "close_approach_date" : "2005-04-01",
      "epoch_date_close_approach" : 1112342400000,
      "relative_velocity" : {
        "kilometers_per_second" : "19.5427508067",
        "kilometers_per_hour" : "70353.902904017",
        "miles_per_hour" : "43715.1792794433"
      },
      "miss_distance" : {
        "astronomical" : "0.0319007301",
        "lunar" : "12.4093837738",
        "kilometers" : "4772281.5",
        "miles" : "2965358.25"
      },
      "orbiting_body" : "Earth"
    } ],
    "orbital_data" : {
      "orbit_id" : "7",
      "orbit_determination_date" : "2017-04-06 09:11:08",
      "first_observation_date" : "2005-04-06",
      "last_observation_date" : "2005-04-07",
      "data_arc_in_days" : 1,
      "observations_used" : 16,
      "orbit_uncertainty" : "9",
      "minimum_orbit_intersection" : ".0194417",
      "jupiter_tisserand_invariant" : "3.145",
      "epoch_osculation" : "2453467.5",
      "eccentricity" : ".7296901361820148",
      "semi_major_axis" : "2.333905913059811",
      "inclination" : "1.552185304563697",
      "ascending_node_longitude" : "73.65309024641317",
      "orbital_period" : "1302.337192212895",
      "perihelion_distance" : ".6308777895231878",
      "perihelion_argument" : "36.47971858658072",
      "aphelion_distance" : "4.036934036596434",
      "perihelion_time" : "2453416.902734689878",
      "mean_anomaly" : "13.9864050727857",
      "mean_motion" : ".2764261069656607",
      "equinox" : "J2000",
      "orbit_class" : {
        "orbit_class_type" : "APO",
        "orbit_class_range" : "a (semi-major axis) > 1.0 AU; q (perihelion) < 1.017 AU",
        "orbit_class_description" : "Near-Earth asteroid orbits which cross the Earth’s orbit similar to that of 1862 Apollo"
      }
    },
    "is_sentry_object" : true,
    "sentry_data" : "https://api.nasa.gov/neo/rest/v1/neo/sentry/3275977?api_key=jqAGvNAwUIBu4fl9FSOjdm3V4F7hIglRzI6pdX9d"
  } ]
}